[{"OBJECT_NAME":"YAOGAN-4","OBJECT_ID":"2008-061A","EPOCH":"2026-03-09T17:16:46.672032","MEAN_MOTION":14.82978423,"ECCENTRICITY":0.00153383,"INCLINATION":97.9248,"RA_OF_ASC_NODE":3.0166,"ARG_OF_PERICENTER":39.2204,"MEAN_ANOMALY":321.0118,"EPHEMERIS_TYPE":0,"CLASSIFICATION_TYPE":"U","NORAD_CAT_ID":33446,"ELEMENT_SET_NO":999,"REV_AT_EPOCH":93092,"BSTAR":0.00022773961,"MEAN_MOTION_DOT":1.799e-5,"MEAN_MOTION_DDOT":0},{"OBJECT_NAME":"GEESAT-3 04","OBJECT_ID":"2024-159D","EPOCH":"2026-03-09T22:19:33.498048","MEAN_MOTION":14.82863274,"ECCENTRICITY":0.00023149,"INCLINATION":49.9968,"RA_OF_ASC_NODE":93.6618,"ARG_OF_PERICENTER":46.406,"MEAN_ANOMALY":313.707,"EPHEMERIS_TYPE":0,"CLASSIFICATION_TYPE":"U","NORAD_CAT_ID":61014,"ELEMENT_SET_NO":999,"REV_AT_EPOCH":8327,"BSTAR":0.00041507261,"MEAN_MOTION_DOT":3.175e-5,"MEAN_MOTION_DDOT":0}]
